NORAD_CAT_ID,OBJECT_NAME,OBJECT_TYPE,EPOCH,MEAN_MOTION,ECCENTRICITY,INCLINATION,RA_OF_ASC_NODE,ARG_OF_PERICENTER,MEAN_ANOMALY,BSTAR,MEAN_MOTION_DOT,MEAN_MOTION_DDOT,TLE_LINE0,TLE_LINE1,TLE_LINE2,SEMIMAJOR_AXIS,PERIOD,APOGEE,PERIGEE,DECAYED
53422.0,STARLINK-4546,PAYLOAD,2023-10-31 14:30:17,15.08843266,0.0001417,53.2188,15.1931,88.1109,272.0046,-3.2139e-05,-7.99e-06,0.0,0 STARLINK-4546,1 53422U 22097AL  23304.60437222 -.00000799  00000-0 -32139-4 0  9993,2 53422  53.2188  15.1931 0001417  88.1109 272.0046 15.08843266 68801,6917.87,95.437,540.716,538.755,0.0
53422.0,STARLINK-4546,PAYLOAD,2023-11-01 04:48:47,15.0883021,0.0001482,53.2172,12.519,91.1043,269.0119,0.00038614,5.861e-05,0.0,0 STARLINK-4546,1 53422U 22097AL  23305.20054486  .00005861  00000-0  38614-3 0  9993,2 53422  53.2172  12.5190 0001482  91.1043 269.0119 15.08830210 68414,6917.91,95.438,540.801,538.75,0.0
53422.0,STARLINK-4546,PAYLOAD,2023-11-01 11:10:20,15.08806796,8.6e-05,53.2192,11.33,77.2548,282.854,2.9538e-05,1.82e-06,0.0,0 STARLINK-4546,1 53422U 22097AL  23305.46551717  .00000182  00000-0  29538-4 0  9997,2 53422  53.2192  11.3300 0000860  77.2548 282.8540 15.08806796 68457,6917.982,95.44,540.442,539.252,0.0
53422.0,STARLINK-4546,PAYLOAD,2023-11-02 04:39:33,15.08839232,0.0001481,53.2193,8.0586,95.9286,264.1875,0.00015492,2.178e-05,0.0,0 STARLINK-4546,1 53422U 22097AL  23306.19414122  .00002178  00000-0  15492-3 0  9996,2 53422  53.2193   8.0586 0001481  95.9286 264.1875 15.08839232 68560,6917.883,95.438,540.772,538.723,0.0
53422.0,STARLINK-4546,PAYLOAD,2023-11-02 11:01:05,15.0884581,0.0001568,53.2202,6.8693,97.8742,262.2428,8.3885e-05,1.047e-05,0.0,0 STARLINK-4546,1 53422U 22097AL  23306.45909656  .00001047  00000-0  83885-4 0  9992,2 53422  53.2202   6.8693 0001568  97.8742 262.2428 15.08845810 69080,6917.863,95.437,540.812,538.643,0.0
53422.0,STARLINK-4546,PAYLOAD,2023-11-03 04:30:21,15.08827367,0.0001256,53.2198,3.5964,105.8644,254.2487,0.00012121,1.641e-05,0.0,0 STARLINK-4546,1 53422U 22097AL  23307.18774673  .00001641  00000-0  12121-3 0  9996,2 53422  53.2198   3.5964 0001256 105.8644 254.2487 15.08827367 68716,6917.919,95.438,540.653,538.915,0.0
53422.0,STARLINK-4546,PAYLOAD,2023-11-03 10:51:53,15.088404,0.0001467,53.2192,2.4121,93.9993,266.1167,4.1539e-05,3.73e-06,0.0,0 STARLINK-4546,1 53422U 22097AL  23307.45270130  .00000373  00000-0  41539-4 0  9992,2 53422  53.2192   2.4121 0001467  93.9993 266.1167 15.08840400 68755,6917.879,95.438,540.759,538.729,0.0
53422.0,STARLINK-4546,PAYLOAD,2023-11-03 20:24:12,15.08840883,0.0001378,53.2184,0.6254,85.0423,275.0726,-2.1774e-05,-6.34e-06,0.0,0 STARLINK-4546,1 53422U 22097AL  23307.85014232 -.00000634  00000-0 -21774-4 0  9996,2 53422  53.2184   0.6254 0001378  85.0423 275.0726 15.08840883 69299,6917.878,95.437,540.696,538.789,0.0
53422.0,STARLINK-4546,PAYLOAD,2023-11-03 23:34:58,15.08834712,0.0001516,53.2187,0.0326,100.1934,259.9229,3.4275e-05,2.57e-06,0.0,0 STARLINK-4546,1 53422U 22097AL  23307.98262566  .00000257  00000-0  34275-4 0  9994,2 53422  53.2187   0.0326 0001516 100.1934 259.9229 15.08834712 68838,6917.897,95.438,540.81,538.713,0.0
53422.0,STARLINK-4546,PAYLOAD,2023-11-04 10:42:40,15.08840337,0.0001541,53.2189,357.9514,100.3445,259.7721,5.8236e-05,6.39e-06,0.0,0 STARLINK-4546,1 53422U 22097AL  23308.44630300  .00000639  00000-0  58236-4 0  9998,2 53422  53.2189 357.9514 0001541 100.3445 259.7721 15.08840337 69386,6917.879,95.438,540.81,538.678,0.0
53422.0,STARLINK-4546,PAYLOAD,2023-11-04 20:14:58,15.08847663,0.0001363,53.2181,356.1646,89.4596,270.6552,7.2804e-05,8.71e-06,0.0,0 STARLINK-4546,1 53422U 22097AL  23308.84373610  .00000871  00000-0  72804-4 0  9995,2 53422  53.2181 356.1646 0001363  89.4596 270.6552 15.08847663 68967,6917.857,95.437,540.665,538.779,0.0
53422.0,STARLINK-4546,PAYLOAD,2023-11-05 10:33:27,15.08843841,0.0001757,53.2192,353.4868,88.5048,271.6145,0.00013871,1.92e-05,0.0,0 STARLINK-4546,1 53422U 22097AL  23309.43989971  .00001920  00000-0  13871-3 0  9998,2 53422  53.2192 353.4868 0001757  88.5048 271.6145 15.08843841 69058,6917.869,95.437,540.949,538.518,0.0
53422.0,STARLINK-4546,PAYLOAD,2023-11-05 12:08:49,15.08854601,0.000157,53.2186,353.1892,100.3402,259.7767,0.00020179,2.926e-05,0.0,0 STARLINK-4546,1 53422U 22097AL  23309.50612876  .00002926  00000-0  20179-3 0  9999,2 53422  53.2186 353.1892 0001570 100.3402 259.7767 15.08854601 69542,6917.836,95.437,540.787,538.615,0.0
53422.0,STARLINK-4546,PAYLOAD,2023-11-05 20:05:46,15.08839642,0.0001501,53.2187,351.7065,92.5122,267.6042,9.0048e-05,1.145e-05,0.0,0 STARLINK-4546,1 53422U 22097AL  23309.83734216  .00001145  00000-0  90048-4 0  9993,2 53422  53.2187 351.7065 0001501  92.5122 267.6042 15.08839642 69591,6917.881,95.438,540.785,538.708,0.0
53422.0,STARLINK-4546,PAYLOAD,2023-11-06 10:24:12,15.08871729,0.0001711,53.2174,349.0267,94.838,265.2808,0.00059136,9.144e-05,0.0,0 STARLINK-4546,1 53422U 22097AL  23310.43348354  .00009144  00000-0  59136-3 0  9994,2 53422  53.2174 349.0267 0001711  94.8380 265.2808 15.08871729 69209,6917.783,95.436,540.832,538.465,0.0
53422.0,STARLINK-4546,PAYLOAD,2023-11-07 08:39:40,15.08806258,0.0001769,53.218,344.8636,95.1584,264.961,-0.00048289,-7.958e-05,0.0,0 STARLINK-4546,1 53422U 22097AL  23311.36088262 -.00007958  00000-0 -48289-3 0  9996,2 53422  53.2180 344.8636 0001769  95.1584 264.9610 15.08806258 69349,6917.984,95.44,541.072,538.625,0.0
53422.0,STARLINK-4546,PAYLOAD,2023-11-07 13:25:49,15.08818666,0.0001398,53.2179,343.9728,86.4449,273.6703,-0.00011931,-2.185e-05,0.0,0 STARLINK-4546,1 53422U 22097AL  23311.55960200 -.00002185  00000-0 -11931-3 0  9999,2 53422  53.2179 343.9728 0001398  86.4449 273.6703 15.08818666 69852,6917.946,95.439,540.778,538.843,0.0
53422.0,STARLINK-4546,PAYLOAD,2023-11-07 19:47:22,15.0882483,0.0001321,53.2176,342.7834,94.1654,265.949,0.00032859,4.943e-05,0.0,0 STARLINK-4546,1 53422U 22097AL  23311.82456210  .00004943  00000-0  32859-3 0  9994,2 53422  53.2176 342.7834 0001321  94.1654 265.9490 15.08824830 69413,6917.927,95.439,540.706,538.878,0.0
53422.0,STARLINK-4546,PAYLOAD,2023-11-08 11:41:12,15.08858547,0.000157,53.2184,339.8074,106.1087,254.0078,0.00072592,0.0001129,0.0,0 STARLINK-4546,1 53422U 22097AL  23312.48695392  .00011290  00000-0  72592-3 0  9994,2 53422  53.2184 339.8074 0001570 106.1087 254.0078 15.08858547 69519,6917.824,95.436,540.775,538.603,0.0
53422.0,STARLINK-4546,PAYLOAD,2023-11-08 19:38:08,15.08847349,0.0001825,53.218,338.3307,50.4888,309.6265,0.00058926,9.104e-05,0.0,0 STARLINK-4546,1 53422U 22097AL  23312.81815506  .00009104  00000-0  58926-3 0  9998,2 53422  53.2180 338.3307 0001825  50.4888 309.6265 15.08847349 69569,6917.858,95.437,540.985,538.46,0.0
53422.0,STARLINK-4546,PAYLOAD,2023-11-09 11:31:59,15.08875562,0.0001594,53.2182,335.3554,53.898,306.2159,0.00070444,0.00010952,0.0,0 STARLINK-4546,1 53422U 22097AL  23313.48054404  .00010952  00000-0  70444-3 0  9996,2 53422  53.2182 335.3554 0001594  53.8980 306.2159 15.08875562 69669,6917.772,95.435,540.739,538.534,0.0
53422.0,STARLINK-4546,PAYLOAD,2023-11-10 01:50:28,15.08834821,9.73e-05,53.2186,332.6811,35.7553,324.3504,-0.00027036,-4.587e-05,0.0,0 STARLINK-4546,1 53422U 22097AL  23314.07671492 -.00004587  00000-0 -27036-3 0  9992,2 53422  53.2186 332.6811 0000973  35.7553 324.3504 15.08834821 69752,6917.896,95.438,540.434,539.088,0.0
53422.0,STARLINK-4546,PAYLOAD,2023-11-10 08:12:00,15.08847431,0.0001293,53.2179,331.4834,94.3063,265.8077,-1.7773e-05,-5.71e-06,0.0,0 STARLINK-4546,1 53422U 22097AL  23314.34166993 -.00000571  00000-0 -17773-4 0  9994,2 53422  53.2179 331.4834 0001293  94.3063 265.8077 15.08847431 69798,6917.858,95.437,540.617,538.828,0.0
53422.0,STARLINK-4546,PAYLOAD,2023-11-10 17:44:19,15.08848229,0.0001543,53.2175,329.6981,63.9364,296.1787,-2.0512e-05,-6.15e-06,0.0,0 STARLINK-4546,1 53422U 22097AL  23314.73910904 -.00000615  00000-0 -20512-4 0  9990,2 53422  53.2175 329.6981 0001543  63.9364 296.1787 15.08848229 70333,6917.855,95.437,540.788,538.653,0.0
53422.0,STARLINK-4546,PAYLOAD,2023-11-11 01:41:15,15.08838595,0.0001509,53.2186,328.2133,97.4354,262.6809,-6.1094e-05,-1.26e-05,0.0,0 STARLINK-4546,1 53422U 22097AL  23315.07031300 -.00001260  00000-0 -61094-4 0  9999,2 53422  53.2186 328.2133 0001509  97.4354 262.6809 15.08838595 69901,6917.885,95.438,540.794,538.706,0.0
53422.0,STARLINK-4546,PAYLOAD,2023-11-11 08:02:47,15.08843592,0.0001442,53.2181,327.0237,98.4485,261.6671,6.5485e-05,7.54e-06,0.0,0 STARLINK-4546,1 53422U 22097AL  23315.33527141  .00000754  00000-0  65485-4 0  9994,2 53422  53.2181 327.0237 0001442  98.4485 261.6671 15.08843592 70428,6917.869,95.437,540.732,538.737,0.0
53422.0,STARLINK-4546,PAYLOAD,2023-11-11 17:35:06,15.08840999,0.0001453,53.2183,325.2396,103.2708,256.8446,0.00010873,1.443e-05,0.0,0 STARLINK-4546,1 53422U 22097AL  23315.73271327  .00001443  00000-0  10873-3 0  9996,2 53422  53.2183 325.2396 0001453 103.2708 256.8446 15.08840999 70481,6917.877,95.437,540.748,538.737,0.0
53422.0,STARLINK-4546,PAYLOAD,2023-11-12 09:28:57,15.0884572,0.0001439,53.2186,322.266,102.9008,257.2145,0.00021137,3.078e-05,0.0,0 STARLINK-4546,1 53422U 22097AL  23316.39511168  .00003078  00000-0  21137-3 0  9990,2 53422  53.2186 322.2660 0001439 102.9008 257.2145 15.08845720 70105,6917.863,95.437,540.723,538.732,0.0
53422.0,STARLINK-4546,PAYLOAD,2023-11-12 17:25:53,15.0884824,0.0001365,53.2182,320.7791,92.6469,267.468,0.00018207,2.612e-05,0.0,0 STARLINK-4546,1 53422U 22097AL  23316.72631017  .00002612  00000-0  18207-3 0  9990,2 53422  53.2182 320.7791 0001365  92.6469 267.4680 15.08848240 70638,6917.855,95.437,540.664,538.776,0.0
53422.0,STARLINK-4546,PAYLOAD,2023-11-13 07:44:20,15.08860384,0.0001593,53.2181,318.1033,90.6078,269.5097,-0.00024213,-4.142e-05,0.0,0 STARLINK-4546,1 53422U 22097AL  23317.32246153 -.00004142  00000-0 -24213-3 0  9996,2 53422  53.2181 318.1033 0001593  90.6078 269.5097 15.08860384 70722,6917.818,95.436,540.785,538.581,0.0
